[Satellite]
VERSION=1.1
NAME=COMSATBW-2
NICKNAME=COMSATBW-2
TLE1=1 36582U 10021B   17186.26143685  .00000083  00000-0  00000-0 0  9997
TLE2=2 36582   0.0474 247.5370 0002027 218.8000 284.3920  1.00270660 26197
